NORAD_CAT_ID,OBJECT_NAME,OBJECT_TYPE,EPOCH,MEAN_MOTION,ECCENTRICITY,INCLINATION,RA_OF_ASC_NODE,ARG_OF_PERICENTER,MEAN_ANOMALY,BSTAR,MEAN_MOTION_DOT,MEAN_MOTION_DDOT,TLE_LINE0,TLE_LINE1,TLE_LINE2,SEMIMAJOR_AXIS,PERIOD,APOGEE,PERIGEE,DECAYED
54103.0,STARLINK-5200,PAYLOAD,2022-12-24 21:02:23,15.73215853,0.0003378,53.2149,184.8715,10.8312,349.278,1.7909e-05,1.893e-05,0.0,0 STARLINK-5200,1 54103U 22136BE  22358.87665834  .00001893  00000-0  17909-4 0  9995,2 54103  53.2149 184.8715 0003378  10.8312 349.2780 15.73215853 10777,6727.85,91.532,351.98800000000006,347.44199999999995,0.0
54103.0,STARLINK-5200,PAYLOAD,2022-12-25 00:05:20,15.73226765,0.0003921,53.2143,184.2416,17.4749,342.6405,4.1087e-05,5.154e-05,0.0,0 STARLINK-5200,1 54103U 22136BE  22359.00371061  .00005154  00000-0  41087-4 0  9995,2 54103  53.2143 184.2416 0003921  17.4749 342.6405 15.73226765 10791,6727.819,91.532,352.32199999999995,347.046,0.0
54103.0,STARLINK-5200,PAYLOAD,2022-12-25 12:17:11,15.73201052,0.0003402,53.2145,181.7272,11.4716,348.6381,1.3574e-06,-4.33e-06,0.0,0 STARLINK-5200,1 54103U 22136BE  22359.51194245 -.00000433  00000-0  13574-5 0  9995,2 54103  53.2145 181.7272 0003402  11.4716 348.6381 15.73201052 10877,6727.892,91.533,352.046,347.468,0.0
54103.0,STARLINK-5200,PAYLOAD,2022-12-25 19:54:35,15.73219367,0.0004806,53.2145,180.1549,6.2634,353.8446,3.4021e-05,4.158e-05,0.0,0 STARLINK-5200,1 54103U 22136BE  22359.82957660  .00004158  00000-0  34021-4 0  9993,2 54103  53.2145 180.1549 0004806   6.2634 353.8446 15.73219367 10921,6727.84,91.532,352.93800000000016,346.472,0.0
54103.0,STARLINK-5200,PAYLOAD,2022-12-25 22:57:33,15.73208434,0.0003478999999999,53.2146,179.5261,12.1421,347.9682,1.0116e-05,7.97e-06,0.0,0 STARLINK-5200,1 54103U 22136BE  22359.95663610  .00000797  00000-0  10116-4 0  9990,2 54103  53.2146 179.5261 0003479  12.1421 347.9682 15.73208434 10941,6727.871,91.533,352.077,347.396,0.0
54103.0,STARLINK-5200,PAYLOAD,2022-12-26 12:40:53,15.73183762,0.0003897,53.2147,176.6958,3.8247,356.2802,-4.430600000000001e-05,-6.836e-05,0.0,0 STARLINK-5200,1 54103U 22136BE  22360.52839879 -.00006836  00000-0 -44306-4 0  9997,2 54103  53.2147 176.6958 0003897   3.8247 356.2802 15.73183762 10561,6727.941,91.534,352.42800000000005,347.185,0.0
54103.0,STARLINK-5200,PAYLOAD,2022-12-26 18:46:47,15.73209508,0.000366,53.2146,175.4387,8.7892,351.3192,4.5251e-05,5.736e-05,0.0,0 STARLINK-5200,1 54103U 22136BE  22360.78249917  .00005736  00000-0  45251-4 0  9999,2 54103  53.2146 175.4387 0003660   8.7892 351.3192 15.73209508 10601,6727.868,91.533,352.195,347.271,0.0
54103.0,STARLINK-5200,PAYLOAD,2022-12-27 11:33:03,15.73228419,0.0003736,53.2151,171.9807,13.0068,347.1048,5.5759e-05,7.219999999999999e-05,0.0,0 STARLINK-5200,1 54103U 22136BE  22361.48129212  .00007220  00000-0  55759-4 0  9996,2 54103  53.2151 171.9807 0003736  13.0068 347.1048 15.73228419 11182,6727.814,91.532,352.1930000000001,347.166,0.0
54103.0,STARLINK-5200,PAYLOAD,2022-12-27 20:41:55,15.73236043,0.000391,53.2146,170.0936,10.8832,349.2272,6.0268e-05,7.858e-05,0.0,0 STARLINK-5200,1 54103U 22136BE  22361.86245043  .00007858  00000-0  60268-4 0  9997,2 54103  53.2146 170.0936 0003910  10.8832 349.2272 15.73236043 10775,6727.792,91.531,352.288,347.027,0.0
54103.0,STARLINK-5200,PAYLOAD,2022-12-28 13:28:12,15.73219161,0.0003854,53.2139,166.6339,11.8071,348.3039,1.3364e-05,1.253e-05,0.0,0 STARLINK-5200,1 54103U 22136BE  22362.56125866  .00001253  00000-0  13364-4 0  9993,2 54103  53.2139 166.6339 0003854  11.8071 348.3039 15.73219161 11356,6727.840999999999,91.532,352.298,347.11300000000006,0.0
54103.0,STARLINK-5200,PAYLOAD,2022-12-28 21:05:37,15.73196173,0.0004458,53.2152,165.0646,9.1011,351.0089,-4.751e-05,-7.290000000000001e-05,0.0,0 STARLINK-5200,1 54103U 22136BE  22362.87890800 -.00007290  00000-0 -47510-4 0  9993,2 54103  53.2152 165.0646 0004458   9.1011 351.0089 15.73196173 11409,6727.906,91.533,352.77,346.772,0.0
54103.0,STARLINK-5200,PAYLOAD,2022-12-29 10:48:58,15.73173238,0.0005696,53.2143,162.2377,7.0666,353.0433,-7.687e-05,-0.00011399,0.0,0 STARLINK-5200,1 54103U 22136BE  22363.45067686 -.00011399  00000-0 -76870-4 0  9992,2 54103  53.2143 162.2377 0005696   7.0666 353.0433 15.73173238 11498,6727.971,91.535,353.6690000000001,346.004,0.0
54103.0,STARLINK-5200,PAYLOAD,2022-12-30 11:12:39,15.73214925,0.0004296,53.2156,157.20600000000005,8.1965,351.9125,7.9964e-05,0.00010624,0.0,0 STARLINK-5200,1 54103U 22136BE  22364.46712344  .00010624  00000-0  79964-4 0  9997,2 54103  53.2156 157.2060 0004296   8.1965 351.9125 15.73214925 11656,6727.853,91.532,352.608,346.827,0.0
54103.0,STARLINK-5200,PAYLOAD,2022-12-30 17:18:33,15.73239682,0.0003743,53.2143,155.9471,7.5258,352.5818,0.00013281,0.00018093,0.0,0 STARLINK-5200,1 54103U 22136BE  22364.72121862  .00018093  00000-0  13281-3 0  9992,2 54103  53.2143 155.9471 0003743   7.5258 352.5818 15.73239682 11694,6727.781999999997,91.531,352.165,347.129,0.0
54103.0,STARLINK-5200,PAYLOAD,2022-12-31 10:04:47,15.73273593,0.0004333,53.215,152.4881,12.5184,347.5943,0.00014338,0.00019617,0.0,0 STARLINK-5200,1 54103U 22136BE  22365.41999684  .00019617  00000-0  14338-3 0  9991,2 54103  53.2150 152.4881 0004333  12.5184 347.5943 15.73273593 11804,6727.685,91.529,352.465,346.635,0.0
54103.0,STARLINK-5200,PAYLOAD,2022-12-31 19:13:41,15.73227575,0.0004458,53.2143,150.6023,6.5347,353.5731,-4.5475e-06,-1.265e-05,0.0,0 STARLINK-5200,1 54103U 22136BE  22365.80117312 -.00001265  00000-0 -45475-5 0  9994,2 54103  53.2143 150.6023 0004458   6.5347 353.5731 15.73227575 11863,6727.816999999999,91.532,352.681,346.682,0.0
54103.0,STARLINK-5200,PAYLOAD,2023-01-01 07:25:32,15.73183777,0.0003972,53.2152,148.0871,356.5745,3.5247,-0.00014791,-0.00021325,0.0,0 STARLINK-5200,1 54103U 22136BE  23001.30940105 -.00021325  00000-0 -14791-3 0  9995,2 54103  53.2152 148.0871 0003972 356.5745   3.5247 15.73183777 11943,6727.941,91.534,352.47900000000016,347.134,0.0
54103.0,STARLINK-5200,PAYLOAD,2023-01-01 11:59:59,15.73174409,0.0004355,53.2147,147.1445,357.4405,2.6592,-0.00015567,-0.00022403,0.0,0 STARLINK-5200,1 54103U 22136BE  23001.49999215 -.00022403  00000-0 -15567-3 0  9991,2 54103  53.2147 147.1445 0004355 357.4405   2.6592 15.73174409 11500,6727.968000000003,91.535,352.76300000000015,346.903,0.0
54103.0,STARLINK-5200,PAYLOAD,2023-01-01 19:37:23,15.73181489,0.0004317,53.2137,145.572,0.3066,359.7956,-0.00010524,-0.00015364,0.0,0 STARLINK-5200,1 54103U 22136BE  23001.81763331 -.00015364  00000-0 -10524-3 0  9991,2 54103  53.2137 145.5720 0004317   0.3066 359.7956 15.73181489 11553,6727.948,91.534,352.717,346.908,0.0
54103.0,STARLINK-5200,PAYLOAD,2023-01-02 12:23:40,15.73198421,0.0004162,53.2149,142.1143,355.5821,4.5162,2.5949e-05,3.02e-05,0.0,0 STARLINK-5200,1 54103U 22136BE  23002.51643997  .00003020  00000-0  25949-4 0  9996,2 54103  53.2149 142.1143 0004162 355.5821   4.5162 15.73198421 12133,6727.9,91.533,352.565,346.965,0.0
54103.0,STARLINK-5200,PAYLOAD,2023-01-02 18:29:36,15.73183868,0.000442,53.2145,140.8569,352.0384,8.0565,6.2823e-07,-5.37e-06,0.0,0 STARLINK-5200,1 54103U 22136BE  23002.77056015 -.00000537  00000-0  62823-6 0  9998,2 54103  53.2145 140.8569 0004420 352.0384   8.0565 15.73183868 12178,6727.941,91.534,352.78,346.832,0.0
54103.0,STARLINK-5200,PAYLOAD,2023-01-03 11:15:54,15.73195279,0.0004397,53.2157,137.3989,352.4511,7.6442,6.8914e-05,9.06e-05,0.0,0 STARLINK-5200,1 54103U 22136BE  23003.46937674  .00009060  00000-0  68914-4 0  9998,2 54103  53.2157 137.3989 0004397 352.4511   7.6442 15.73195279 11815,6727.909000000002,91.533,352.732,346.815,0.0
54103.0,STARLINK-5200,PAYLOAD,2023-01-04 14:42:32,15.73233663,0.0005194,53.2149,131.7409,339.3428,20.7381,0.00010701,0.0001445,0.0,0 STARLINK-5200,1 54103U 22136BE  23004.61287068  .00014450  00000-0  10701-3 0  9990,2 54103  53.2149 131.7409 0005194 339.3428  20.7381 15.73233663 11995,6727.799,91.531,353.159,346.17,0.0
54103.0,STARLINK-5200,PAYLOAD,2023-01-05 07:28:46,15.73260354,0.000473,53.215,128.2812,334.7334,25.3454,8.658e-05,0.0001158,0.0,0 STARLINK-5200,1 54103U 22136BE  23005.31164920  .00011580  00000-0  86580-4 0  9999,2 54103  53.2150 128.2812 0004730 334.7334  25.3454 15.73260354 12570,6727.723000000001,91.53,352.77,346.406,0.0
54103.0,STARLINK-5200,PAYLOAD,2023-01-05 10:31:44,15.73252714,0.0005539,53.215,127.6525,345.7257,14.3606,4.9054e-05,6.283e-05,0.0,0 STARLINK-5200,1 54103U 22136BE  23005.43870509  .00006283  00000-0  49054-4 0  9998,2 54103  53.2150 127.6525 0005539 345.7257  14.3606 15.73252714 12598,6727.745,91.53,353.336,345.8830000000001,0.0
54103.0,STARLINK-5200,PAYLOAD,2023-01-06 13:58:23,15.73166163,0.000472,53.2146,121.9935,332.1265,27.9501,-0.00015853,-0.00022797,0.0,0 STARLINK-5200,1 54103U 22136BE  23006.58221421 -.00022797  00000-0 -15853-3 0  9997,2 54103  53.2146 121.9935 0004720 332.1265  27.9501 15.73166163 12771,6727.991999999998,91.535,353.032,346.681,0.0
54103.0,STARLINK-5200,PAYLOAD,2023-01-07 00:38:45,15.73182298,0.0004546,53.2168,119.7949,340.8682,19.2167,9.9954e-07,-4.85e-06,0.0,0 STARLINK-5200,1 54103U 22136BE  23007.02691687 -.00000485  00000-0  99954-6 0  9998,2 54103  53.2168 119.7949 0004546 340.8682  19.2167 15.73182298 12847,6727.946,91.534,352.869,346.7519999999999,0.0
54103.0,STARLINK-5200,PAYLOAD,2023-01-07 18:56:30,15.73221615,0.00049,53.2162,116.0221,333.9351,26.1422,0.00012799,0.00017402,0.0,0 STARLINK-5200,1 54103U 22136BE  23007.78924438  .00017402  00000-0  12799-3 0  9999,2 54103  53.2162 116.0221 0004900 333.9351  26.1422 15.73221615 12965,6727.834,91.532,352.995,346.402,0.0
54103.0,STARLINK-5200,PAYLOAD,2023-01-07 21:59:42,15.72042687,0.0007298999999999,53.2163,115.3935,38.5979,321.5561,-0.0045333,-0.00568407,0.0,0 STARLINK-5200,1 54103U 22136BE  23007.91645981 -.00568407  00000-0 -45333-2 0  9994,2 54103  53.2163 115.3935 0007299  38.5979 321.5561 15.72042687 12514,6731.196999999999,91.601,357.975,348.149,0.0
